PROGRESS-MS 30          
1 63129U 25041B   25083.85097182  .00036571  00000+0  64615-3 0  9997
2 63129  51.6372   4.7391 0003719  46.8620 313.2680 15.49980954501538
CREW DRAGON 10          
1 63204U 25049A   25083.85097182  .00036571  00000+0  64615-3 0  9999
2 63204  51.6372   4.7391 0003719  46.8620 313.2680 15.49980954501532
