[
  {
    "OBJECT_NAME": "PROGRESS-MS 30",
    "OBJECT_ID": "2025-041B",
    "EPOCH": "2025-03-24T20:25:23.965248",
    "MEAN_MOTION": 15.49980954,
    "ECCENTRICITY": 0.0003719,
    "INCLINATION": 51.6372,
    "RA_OF_ASC_NODE": 4.7391,
    "ARG_OF_PERICENTER": 46.862,
    "MEAN_ANOMALY": 313.268,
    "EPHEMERIS_TYPE": 0,
    "CLASSIFICATION_TYPE": "U",
    "NORAD_CAT_ID": 63129,
    "ELEMENT_SET_NO": 999,
    "REV_AT_EPOCH": 50153,
    "BSTAR": 0.00064615,
    "MEAN_MOTION_DOT": 0.00036571,
    "MEAN_MOTION_DDOT": 0
  },
  {
    "OBJECT_NAME": "CREW DRAGON 10",
    "OBJECT_ID": "2025-049A",
    "EPOCH": "2025-03-24T20:25:23.965248",
    "MEAN_MOTION": 15.49980954,
    "ECCENTRICITY": 0.0003719,
    "INCLINATION": 51.6372,
    "RA_OF_ASC_NODE": 4.7391,
    "ARG_OF_PERICENTER": 46.862,
    "MEAN_ANOMALY": 313.268,
    "EPHEMERIS_TYPE": 0,
    "CLASSIFICATION_TYPE": "U",
    "NORAD_CAT_ID": 63204,
    "ELEMENT_SET_NO": 999,
    "REV_AT_EPOCH": 50153,
    "BSTAR": 0.00064615,
    "MEAN_MOTION_DOT": 0.00036571,
    "MEAN_MOTION_DDOT": 0
  }
]
